[
  {
    "kvkNumber": "47133406",
    "displayName": "Kok B.V.",
    "companyName": "Kok B.V.",
    "city": "Vos aan de Rijn",
    "zipcode": "1463LJ",
    "street": "Thijsweg",
    "houseNumber": "86"
  },
  {
    "kvkNumber": "64592586",
    "displayName": "Klein, Boer and Wit",
    "companyName": "Klein, Boer and Wit",
    "city": "Ruiterdorp",
    "zipcode": "4553SU",
    "street": "Graaflaan",
    "houseNumber": "74"
  },
  {
    "kvkNumber": "23298325",
    "displayName": "Heuvel en Zn.",
    "companyName": "Heuvel en Zn.",
    "city": "Bakkerbosch",
    "zipcode": "7112HE",
    "street": "Lindenweg",
    "houseNumber": "73"
  },
  {
    "kvkNumber": "86415786",
    "displayName": "Beek Groep",
    "companyName": "Beek Groep",
    "city": "KoehoolLisa",
    "zipcode": "5352AU",
    "street": "Julianstraat",
    "houseNumber": "72"
  },
  {
    "kvkNumber": "30837483",
    "displayName": "Bos B.V.",
    "companyName": "Bos B.V,",
    "city": "Leeuwenbroek",
    "zipcode": "8073XL",
    "street": "Tomlaan",
    "houseNumber": "36"
  },
  {
    "kvkNumber": "23027707",
    "displayName": "Willemsen Advocaten",
    "companyName": "Willemsen Advocaten",
    "city": "Garnwerd aan de IJssel",
    "zipcode": "7575SG",
    "street": "Janssenpark",
    "houseNumber": "18"
  },
  {
    "kvkNumber": "25677709",
    "displayName": "Hendriks en Zn.",
    "companyName": "Hendriks en Zn.",
    "city": "Veenkastland",
    "zipcode": "8313IZ",
    "street": "Johanneslaan",
    "houseNumber": "56"
  },
  {
    "kvkNumber": "90487569",
    "displayName": "Veen BV",
    "companyName": "Veen BV",
    "city": "Lindenbeek",
    "zipcode": "9234ZV",
    "street": "Jacobsplantsoen",
    "houseNumber": "10"
  },
  {
    "kvkNumber": "39955234",
    "displayName": "Dam V.O.F.",
    "companyName": "Dam V.O.F.",
    "city": "GrootEmmaveen",
    "zipcode": "9174XJ",
    "street": "Lottelaan",
    "houseNumber": "70"
  },
  {
    "kvkNumber": "10201145",
    "displayName": "Bos-Mulder",
    "companyName": "Bos-Mulder",
    "city": "Milanhout",
    "zipcode": "2349XW",
    "street": "Jasperlaan",
    "houseNumber": "46"
  }
]